ACS3                    
1 59588U 24077B   24216.14065362  .00000049  00000+0  92032-4 0  9999
2 59588  97.4036 273.4102 0019316 329.5334  30.4693 13.67694532 13829
